[{"OBJECT_NAME":"STARLINK-2452","OBJECT_ID":"2021-027Z","EPOCH":"2026-03-09T12:48:10.167264","MEAN_MOTION":15.30217566,"ECCENTRICITY":0.00013478,"INCLINATION":53.1595,"RA_OF_ASC_NODE":155.6625,"ARG_OF_PERICENTER":95.7701,"MEAN_ANOMALY":264.3453,"EPHEMERIS_TYPE":0,"CLASSIFICATION_TYPE":"U","NORAD_CAT_ID":48115,"ELEMENT_SET_NO":999,"REV_AT_EPOCH":27262,"BSTAR":0.00032089207,"MEAN_MOTION_DOT":9.162e-5,"MEAN_MOTION_DDOT":0},{"OBJECT_NAME":"SITRO-AIS 8 (ANOKHIN)","OBJECT_ID":"2023-091AD","EPOCH":"2026-03-09T23:44:40.058592","MEAN_MOTION":15.29359179,"ECCENTRICITY":0.0012509,"INCLINATION":97.5169,"RA_OF_ASC_NODE":133.2823,"ARG_OF_PERICENTER":92.0171,"MEAN_ANOMALY":268.2501,"EPHEMERIS_TYPE":0,"CLASSIFICATION_TYPE":"U","NORAD_CAT_ID":57193,"ELEMENT_SET_NO":999,"REV_AT_EPOCH":14927,"BSTAR":0.00064982524,"MEAN_MOTION_DOT":0.00018494,"MEAN_MOTION_DDOT":0}]
